{
  "id": 840816355,
  "type": "Feature",
  "properties": {
    "addr:city":"Owensboro",
    "addr:full":"207 E 2Nd St Owensboro, Ky 42303-4201",
    "addr:house_number":"207",
    "addr:housenumber":"207",
    "addr:phone":"+1 270-926-7891",
    "addr:postcode":"42303-4201",
    "addr:road":"E 2Nd St",
    "addr:state":"KY",
    "addr:street":"E 2Nd St",
    "edtf:cessation":"uuuu",
    "edtf:inception":"uuuu",
    "geom:area":0.0,
    "geom:bbox":"-87.1099,37.77506,-87.1099,37.77506",
    "geom:latitude":37.77506,
    "geom:longitude":-87.1099,
    "iso:country":"US",
    "mz:hierarchy_label":1,
    "mz:is_current":1,
    "sg:address":"207 E 2nd St",
    "sg:city":"Owensboro",
    "sg:classifiers":[
        {
            "category":"Museum",
            "subcategory":"",
            "type":"Entertainment"
        }
    ],
    "sg:owner":"simplegeo",
    "sg:phone":"+1 270 926 7891",
    "sg:postcode":"42303",
    "sg:province":"KY",
    "sg:website":"www.ibma.org",
    "src:geom":"mudf",
    "wof:airports":[
        102533693
    ],
    "wof:belongsto":[],
    "wof:breaches":[],
    "wof:concordances":{
        "mudf:mid":8402100353,
        "sg:id":"SG_4GELSr2P3ND1XcKe9ncxlS_37.775099_-87.108935@1294127441"
    },
    "wof:country":"US",
    "wof:created":1464048642,
    "wof:geomhash":"0d92b663646feb085506de576b53451d",
    "wof:hierarchy":[],
    "wof:id":840816355,
    "wof:lastmodified":1534186960,
    "wof:name":"International Bluegrass Music Museum",
    "wof:parent_id":-1,
    "wof:placetype":"venue",
    "wof:repo":"whosonfirst-data-venue-us-ky",
    "wof:superseded_by":[],
    "wof:supersedes":[],
    "wof:tags":[]
},
  "bbox": [
    -87.1099,
    37.77506,
    -87.1099,
    37.77506
],
  "geometry": {"coordinates":[-87.1099,37.77506],"type":"Point"}
}