{
  "id": 840548499,
  "type": "Feature",
  "properties": {
    "addr:city":"Ashland",
    "addr:full":"1620 Winchester Avenue Ashland, Ky 41101",
    "addr:house_number":"1620",
    "addr:housenumber":"1620",
    "addr:phone":"+1 606-329-8888",
    "addr:postcode":"41101",
    "addr:road":"Winchester Avenue",
    "addr:state":"KY",
    "addr:street":"Winchester Ave",
    "edtf:cessation":"uuuu",
    "edtf:inception":"uuuu",
    "geom:area":0.0,
    "geom:bbox":"-82.63929,38.47843,-82.63929,38.47843",
    "geom:latitude":38.47843,
    "geom:longitude":-82.63929,
    "iso:country":"US",
    "mz:hierarchy_label":1,
    "mz:is_current":1,
    "sg:address":"1620 Winchester Ave",
    "sg:city":"Ashland",
    "sg:classifiers":[
        {
            "category":"Museum",
            "subcategory":"",
            "type":"Entertainment"
        }
    ],
    "sg:owner":"simplegeo",
    "sg:phone":"+1 606 329 8888",
    "sg:postcode":"41101",
    "sg:province":"KY",
    "src:geom":"mudf",
    "wof:airports":[
        102526941
    ],
    "wof:belongsto":[],
    "wof:breaches":[],
    "wof:concordances":{
        "mudf:mid":8402100066,
        "sg:id":"SG_0jTFK4ZGOJWL1vqLhX8PeP_38.478150_-82.638648@1294127441"
    },
    "wof:country":"US",
    "wof:created":1464042476,
    "wof:geomhash":"049087842c3e96f3d5b4b4ef57261fe7",
    "wof:hierarchy":[],
    "wof:id":840548499,
    "wof:lastmodified":1534186957,
    "wof:name":"Highlands Museum And Discovery Center",
    "wof:parent_id":-1,
    "wof:placetype":"venue",
    "wof:repo":"whosonfirst-data-venue-us-ky",
    "wof:superseded_by":[],
    "wof:supersedes":[],
    "wof:tags":[]
},
  "bbox": [
    -82.63929,
    38.47843,
    -82.63929,
    38.47843
],
  "geometry": {"coordinates":[-82.63929,38.47843],"type":"Point"}
}